[{"OBJECT_NAME":"STARLINK-32921","OBJECT_ID":"2025-027P","EPOCH":"2026-03-24T04:54:00.429696","MEAN_MOTION":15.27569927,"ECCENTRICITY":0.0001159,"INCLINATION":43.0018,"RA_OF_ASC_NODE":46.7711,"ARG_OF_PERICENTER":268.3903,"MEAN_ANOMALY":91.6815,"EPHEMERIS_TYPE":0,"CLASSIFICATION_TYPE":"U","NORAD_CAT_ID":62920,"ELEMENT_SET_NO":999,"REV_AT_EPOCH":6376,"BSTAR":0.00083427029,"MEAN_MOTION_DOT":0.00022759,"MEAN_MOTION_DDOT":0},{"OBJECT_NAME":"STARLINK-32917","OBJECT_ID":"2025-027Q","EPOCH":"2026-03-23T21:23:34.490688","MEAN_MOTION":15.27580757,"ECCENTRICITY":9.305e-5,"INCLINATION":43.0046,"RA_OF_ASC_NODE":48.7187,"ARG_OF_PERICENTER":271.6859,"MEAN_ANOMALY":88.3886,"EPHEMERIS_TYPE":0,"CLASSIFICATION_TYPE":"U","NORAD_CAT_ID":62921,"ELEMENT_SET_NO":999,"REV_AT_EPOCH":6371,"BSTAR":0.00064668842,"MEAN_MOTION_DOT":0.00017576,"MEAN_MOTION_DDOT":0},{"OBJECT_NAME":"STARLINK-32916","OBJECT_ID":"2025-027R","EPOCH":"2026-03-24T04:59:33.304704","MEAN_MOTION":15.27570733,"ECCENTRICITY":0.00011581,"INCLINATION":43.0026,"RA_OF_ASC_NODE":46.7927,"ARG_OF_PERICENTER":281.1991,"MEAN_ANOMALY":78.873,"EPHEMERIS_TYPE":0,"CLASSIFICATION_TYPE":"U","NORAD_CAT_ID":62922,"ELEMENT_SET_NO":999,"REV_AT_EPOCH":6376,"BSTAR":0.00075570395,"MEAN_MOTION_DOT":0.00020585,"MEAN_MOTION_DDOT":0},{"OBJECT_NAME":"STARLINK-32905","OBJECT_ID":"2025-027S","EPOCH":"2026-03-24T03:56:51.525600","MEAN_MOTION":15.27578749,"ECCENTRICITY":6.689e-5,"INCLINATION":43.0018,"RA_OF_ASC_NODE":47.3269,"ARG_OF_PERICENTER":258.3198,"MEAN_ANOMALY":101.7579,"EPHEMERIS_TYPE":0,"CLASSIFICATION_TYPE":"U","NORAD_CAT_ID":62923,"ELEMENT_SET_NO":999,"REV_AT_EPOCH":6375,"BSTAR":0.00081682248,"MEAN_MOTION_DOT":0.00022282,"MEAN_MOTION_DDOT":0},{"OBJECT_NAME":"STARLINK-32871","OBJECT_ID":"2025-027T","EPOCH":"2026-03-23T21:18:01.598400","MEAN_MOTION":15.27609251,"ECCENTRICITY":5.438e-5,"INCLINATION":43.0016,"RA_OF_ASC_NODE":48.6871,"ARG_OF_PERICENTER":61.8133,"MEAN_ANOMALY":298.2774,"EPHEMERIS_TYPE":0,"CLASSIFICATION_TYPE":"U","NORAD_CAT_ID":62924,"ELEMENT_SET_NO":999,"REV_AT_EPOCH":6371,"BSTAR":0.00085982963,"MEAN_MOTION_DOT":0.00023495,"MEAN_MOTION_DDOT":0},{"OBJECT_NAME":"STARLINK-32920","OBJECT_ID":"2025-027U","EPOCH":"2026-03-23T22:46:36.796800","MEAN_MOTION":15.27600806,"ECCENTRICITY":8.519e-5,"INCLINATION":43.0055,"RA_OF_ASC_NODE":48.2878,"ARG_OF_PERICENTER":267.2419,"MEAN_ANOMALY":92.8335,"EPHEMERIS_TYPE":0,"CLASSIFICATION_TYPE":"U","NORAD_CAT_ID":62925,"ELEMENT_SET_NO":999,"REV_AT_EPOCH":6372,"BSTAR":0.00089348556,"MEAN_MOTION_DOT":0.00024421,"MEAN_MOTION_DDOT":0},{"OBJECT_NAME":"STARLINK-32922","OBJECT_ID":"2025-027V","EPOCH":"2026-03-24T03:51:18.616896","MEAN_MOTION":15.27592046,"ECCENTRICITY":8.23e-5,"INCLINATION":43.0022,"RA_OF_ASC_NODE":47.295,"ARG_OF_PERICENTER":248.3496,"MEAN_ANOMALY":111.7268,"EPHEMERIS_TYPE":0,"CLASSIFICATION_TYPE":"U","NORAD_CAT_ID":62926,"ELEMENT_SET_NO":999,"REV_AT_EPOCH":6375,"BSTAR":0.00082880355,"MEAN_MOTION_DOT":0.00022623,"MEAN_MOTION_DDOT":0},{"OBJECT_NAME":"STARLINK-32891","OBJECT_ID":"2025-027W","EPOCH":"2026-03-24T04:00:33.696288","MEAN_MOTION":15.27572234,"ECCENTRICITY":0.00021047,"INCLINATION":43.0058,"RA_OF_ASC_NODE":47.3482,"ARG_OF_PERICENTER":269.0994,"MEAN_ANOMALY":90.9617,"EPHEMERIS_TYPE":0,"CLASSIFICATION_TYPE":"U","NORAD_CAT_ID":62927,"ELEMENT_SET_NO":999,"REV_AT_EPOCH":6387,"BSTAR":0.00073094148,"MEAN_MOTION_DOT":0.00019902,"MEAN_MOTION_DDOT":0},{"OBJECT_NAME":"STARLINK-32728","OBJECT_ID":"2025-029A","EPOCH":"2026-03-23T22:44:44.288448","MEAN_MOTION":15.30205898,"ECCENTRICITY":0.00017014,"INCLINATION":53.1578,"RA_OF_ASC_NODE":163.8815,"ARG_OF_PERICENTER":90.2419,"MEAN_ANOMALY":269.8777,"EPHEMERIS_TYPE":0,"CLASSIFICATION_TYPE":"U","NORAD_CAT_ID":62948,"ELEMENT_SET_NO":999,"REV_AT_EPOCH":6357,"BSTAR":0.00032073334,"MEAN_MOTION_DOT":9.153e-5,"MEAN_MOTION_DDOT":0},{"OBJECT_NAME":"STARLINK-32857","OBJECT_ID":"2025-029B","EPOCH":"2026-03-23T22:21:57.074976","MEAN_MOTION":15.30187348,"ECCENTRICITY":0.0001754,"INCLINATION":53.1589,"RA_OF_ASC_NODE":163.7924,"ARG_OF_PERICENTER":72.6695,"MEAN_ANOMALY":287.4498,"EPHEMERIS_TYPE":0,"CLASSIFICATION_TYPE":"U","NORAD_CAT_ID":62949,"ELEMENT_SET_NO":999,"REV_AT_EPOCH":6357,"BSTAR":0.00051799815,"MEAN_MOTION_DOT":0.00015007,"MEAN_MOTION_DDOT":0},{"OBJECT_NAME":"STARLINK-32850","OBJECT_ID":"2025-029C","EPOCH":"2026-03-23T09:09:24.567840","MEAN_MOTION":15.30240723,"ECCENTRICITY":0.00012557,"INCLINATION":53.1585,"RA_OF_ASC_NODE":168.8763,"ARG_OF_PERICENTER":120.3501,"MEAN_ANOMALY":239.7624,"EPHEMERIS_TYPE":0,"CLASSIFICATION_TYPE":"U","NORAD_CAT_ID":62950,"ELEMENT_SET_NO":999,"REV_AT_EPOCH":6342,"BSTAR":0.0013537417,"MEAN_MOTION_DOT":0.00040001,"MEAN_MOTION_DDOT":0},{"OBJECT_NAME":"STARLINK-32875","OBJECT_ID":"2025-029D","EPOCH":"2026-03-23T22:59:56.164416","MEAN_MOTION":15.3018847,"ECCENTRICITY":0.00017041,"INCLINATION":53.1587,"RA_OF_ASC_NODE":163.9473,"ARG_OF_PERICENTER":69.9247,"MEAN_ANOMALY":290.1937,"EPHEMERIS_TYPE":0,"CLASSIFICATION_TYPE":"U","NORAD_CAT_ID":62951,"ELEMENT_SET_NO":999,"REV_AT_EPOCH":6354,"BSTAR":0.0007249921,"MEAN_MOTION_DOT":0.00021167,"MEAN_MOTION_DDOT":0},{"OBJECT_NAME":"STARLINK-32865","OBJECT_ID":"2025-029E","EPOCH":"2026-03-23T23:06:46.499616","MEAN_MOTION":15.30189895,"ECCENTRICITY":0.00018501,"INCLINATION":53.1586,"RA_OF_ASC_NODE":166.1034,"ARG_OF_PERICENTER":89.3029,"MEAN_ANOMALY":270.8184,"EPHEMERIS_TYPE":0,"CLASSIFICATION_TYPE":"U","NORAD_CAT_ID":62952,"ELEMENT_SET_NO":999,"REV_AT_EPOCH":6351,"BSTAR":0.00071444821,"MEAN_MOTION_DOT":0.00020854,"MEAN_MOTION_DDOT":0},{"OBJECT_NAME":"STARLINK-32884","OBJECT_ID":"2025-029F","EPOCH":"2026-03-23T22:55:22.132992","MEAN_MOTION":15.30221929,"ECCENTRICITY":2.608e-5,"INCLINATION":53.1599,"RA_OF_ASC_NODE":163.9281,"ARG_OF_PERICENTER":187.4613,"MEAN_ANOMALY":172.6384,"EPHEMERIS_TYPE":0,"CLASSIFICATION_TYPE":"U","NORAD_CAT_ID":62953,"ELEMENT_SET_NO":999,"REV_AT_EPOCH":6354,"BSTAR":0.0008754018,"MEAN_MOTION_DOT":0.00025675,"MEAN_MOTION_DDOT":0},{"OBJECT_NAME":"STARLINK-32874","OBJECT_ID":"2025-029G","EPOCH":"2026-03-23T22:35:38.386464","MEAN_MOTION":15.30211446,"ECCENTRICITY":0.00051096,"INCLINATION":53.1607,"RA_OF_ASC_NODE":163.8411,"ARG_OF_PERICENTER":80.2512,"MEAN_ANOMALY":279.9066,"EPHEMERIS_TYPE":0,"CLASSIFICATION_TYPE":"U","NORAD_CAT_ID":62954,"ELEMENT_SET_NO":999,"REV_AT_EPOCH":6354,"BSTAR":0.00083690423,"MEAN_MOTION_DOT":0.00024524,"MEAN_MOTION_DDOT":0},{"OBJECT_NAME":"STARLINK-32880","OBJECT_ID":"2025-029H","EPOCH":"2026-03-23T15:14:57.356448","MEAN_MOTION":15.30267601,"ECCENTRICITY":0.00017066,"INCLINATION":53.159,"RA_OF_ASC_NODE":167.6142,"ARG_OF_PERICENTER":241.892,"MEAN_ANOMALY":118.1909,"EPHEMERIS_TYPE":0,"CLASSIFICATION_TYPE":"U","NORAD_CAT_ID":62955,"ELEMENT_SET_NO":999,"REV_AT_EPOCH":6346,"BSTAR":0.0010455848,"MEAN_MOTION_DOT":0.00030802,"MEAN_MOTION_DDOT":0}]
