STARLINK-32921          
1 62920U 25027P   26083.20417164  .00022759  00000+0  83427-3 0  9990
2 62920  43.0018  46.7711 0001159 268.3903  91.6815 15.27569927 63765
STARLINK-32917          
1 62921U 25027Q   26082.89137142  .00017576  00000+0  64669-3 0  9998
2 62921  43.0046  48.7187 0000930 271.6859  88.3886 15.27580757 63719
STARLINK-32916          
1 62922U 25027R   26083.20802436  .00020585  00000+0  75570-3 0  9997
2 62922  43.0026  46.7927 0001158 281.1991  78.8730 15.27570733 63764
STARLINK-32905          
1 62923U 25027S   26083.16448525  .00022282  00000+0  81682-3 0  9995
2 62923  43.0018  47.3269 0000668 258.3198 101.7579 15.27578749 63753
STARLINK-32871          
1 62924U 25027T   26082.88751850  .00023495  00000+0  85983-3 0  9997
2 62924  43.0016  48.6871 0000543  61.8133 298.2774 15.27609251 63711
STARLINK-32920          
1 62925U 25027U   26082.94903700  .00024421  00000+0  89349-3 0  9998
2 62925  43.0055  48.2878 0000851 267.2419  92.8335 15.27600806 63728
STARLINK-32922          
1 62926U 25027V   26083.16063214  .00022623  00000+0  82880-3 0  9996
2 62926  43.0022  47.2950 0000823 248.3496 111.7268 15.27592046 63752
STARLINK-32891          
1 62927U 25027W   26083.16705667  .00019902  00000+0  73094-3 0  9995
2 62927  43.0058  47.3482 0002104 269.0994  90.9617 15.27572234 63876
STARLINK-32728          
1 62948U 25029A   26082.94773482  .00009153  00000+0  32073-3 0  9994
2 62948  53.1578 163.8815 0001701  90.2419 269.8777 15.30205898 63574
STARLINK-32857          
1 62949U 25029B   26082.93191059  .00015007  00000+0  51800-3 0  9992
2 62949  53.1589 163.7924 0001754  72.6695 287.4498 15.30187348 63570
STARLINK-32850          
1 62950U 25029C   26082.38153435  .00040001  00000+0  13537-2 0  9995
2 62950  53.1585 168.8763 0001255 120.3501 239.7624 15.30240723 63420
STARLINK-32875          
1 62951U 25029D   26082.95828894  .00021167  00000+0  72499-3 0  9992
2 62951  53.1587 163.9473 0001704  69.9247 290.1937 15.30188470 63542
STARLINK-32865          
1 62952U 25029E   26082.96303819  .00020854  00000+0  71445-3 0  9991
2 62952  53.1586 166.1034 0001850  89.3029 270.8184 15.30189895 63514
STARLINK-32884          
1 62953U 25029F   26082.95511728  .00025675  00000+0  87540-3 0  9990
2 62953  53.1599 163.9281 0000260 187.4613 172.6384 15.30221929 63540
STARLINK-32874          
1 62954U 25029G   26082.94141651  .00024524  00000+0  83690-3 0  9998
2 62954  53.1607 163.8411 0005109  80.2512 279.9066 15.30211446 63541
STARLINK-32880          
1 62955U 25029H   26082.63538607  .00030802  00000+0  10456-2 0  9991
2 62955  53.1590 167.6142 0001706 241.8920 118.1909 15.30267601 63468
